COMMENT,ORIGINATOR,NORAD_CAT_ID,OBJECT_NAME,OBJECT_TYPE,CLASSIFICATION_TYPE,INTLDES,EPOCH,EPOCH_MICROSECONDS,MEAN_MOTION,ECCENTRICITY,INCLINATION,RA_OF_ASC_NODE,ARG_OF_PERICENTER,MEAN_ANOMALY,EPHEMERIS_TYPE,ELEMENT_SET_NO,REV_AT_EPOCH,BSTAR,MEAN_MOTION_DOT,MEAN_MOTION_DDOT,FILE,TLE_LINE0,TLE_LINE1,TLE_LINE2,OBJECT_ID,OBJECT_NUMBER,SEMIMAJOR_AXIS,PERIOD,APOGEE,PERIGEE,DECAYED
"GENERATED VIA SPACETRACK.ORG API","18 SPCS","55096","SPACEBEE-161","PAYLOAD","U","23001CR","2023-12-26 18:01:30","270720","15.29812019","0.0013038","97.4508","60.0452","49.2392","310.9978","0","999","5443","0.0012295","0.00035639","0","4146171","0 SPACEBEE-161","1 55096U 23001CR  23360.75104480  .00035639  00000-0  12295-2 0  9991","2 55096  97.4508  60.0452 0013038  49.2392 310.9978 15.29812019 54432","2023-001CR","55096","6854.511","94.129","485.313","467.439","0"
"GENERATED VIA SPACETRACK.ORG API","18 SPCS","55096","SPACEBEE-161","PAYLOAD","U","23001CR","2023-12-26 18:01:30","270720","15.29812019","0.0013038","97.4508","60.0452","49.2392","310.9978","0","999","5443","0.0012295","0.00035639","0","4146233","0 SPACEBEE-161","1 55096U 23001CR  23360.75104480  .00035639  00000-0  12295-2 0  9991","2 55096  97.4508  60.0452 0013038  49.2392 310.9978 15.29812019 54432","2023-001CR","55096","6854.511","94.129","485.313","467.439","0"
"GENERATED VIA SPACETRACK.ORG API","18 SPCS","55096","SPACEBEE-161","PAYLOAD","U","23001CR","2023-12-27 03:26:38","342976","15.2983687","0.0013019","97.4506","60.4384","47.7309","312.5033","0","999","5449","0.0011741","0.00034048","0","4146803","0 SPACEBEE-161","1 55096U 23001CR  23361.14349934  .00034048  00000-0  11741-2 0  9998","2 55096  97.4506  60.4384 0013019  47.7309 312.5033 15.29836870 54495","2023-001CR","55096","6854.437","94.128","485.225","467.378","0"
"GENERATED VIA SPACETRACK.ORG API","18 SPCS","55096","SPACEBEE-161","PAYLOAD","U","23001CR","2023-12-27 17:34:19","291872","15.29877569","0.0012954","97.4504","61.0284","45.6415","314.5885","0","999","5458","0.0011791","0.00034236","0","4147095","0 SPACEBEE-161","1 55096U 23001CR  23361.73216773  .00034236  00000-0  11791-2 0  9991","2 55096  97.4504  61.0284 0012954  45.6415 314.5885 15.29877569 54588","2023-001CR","55096","6854.315","94.125","485.059","467.301","0"
"GENERATED VIA SPACETRACK.ORG API","18 SPCS","55096","SPACEBEE-161","PAYLOAD","U","23001CR","2023-12-28 02:59:25","932480","15.29900108","0.0012918","97.4504","61.4217","44.659","315.5688","0","999","5464","0.0010837","0.0003147","0","4147260","0 SPACEBEE-161","1 55096U 23001CR  23362.12460570  .00031470  00000-0  10837-2 0  9998","2 55096  97.4504  61.4217 0012918  44.6590 315.5688 15.29900108 54646","2023-001CR","55096","6854.248","94.124","484.967","467.258","0"
"GENERATED VIA SPACETRACK.ORG API","18 SPCS","55096","SPACEBEE-161","PAYLOAD","U","23001CR","2023-12-28 02:59:25","932480","15.29900108","0.0012918","97.4504","61.4217","44.659","315.5688","0","999","5464","0.0010837","0.0003147","0","4147674","0 SPACEBEE-161","1 55096U 23001CR  23362.12460570  .00031470  00000-0  10837-2 0  9998","2 55096  97.4504  61.4217 0012918  44.6590 315.5688 15.29900108 54646","2023-001CR","55096","6854.248","94.124","484.967","467.258","0"
"GENERATED VIA SPACETRACK.ORG API","18 SPCS","55096","SPACEBEE-161","PAYLOAD","U","23001CR","2023-12-28 17:07:04","866528","15.29935895","0.0012917","97.4503","62.0118","42.84","317.3844","0","999","5473","0.0010269","0.00029843","0","4147928","0 SPACEBEE-161","1 55096U 23001CR  23362.71325077  .00029843  00000-0  10269-2 0  9995","2 55096  97.4503  62.0118 0012917  42.8400 317.3844 15.29935895 54736","2023-001CR","55096","6854.141","94.122","484.859","467.152","0"
"GENERATED VIA SPACETRACK.ORG API","18 SPCS","55096","SPACEBEE-161","PAYLOAD","U","23001CR","2023-12-29 04:06:21","19968","15.29961871","0.0012925","97.4501","62.4707","41.3772","318.8445","0","999","5480","0.00096839","0.00028155","0","4148144","0 SPACEBEE-161","1 55096U 23001CR  23363.17107662  .00028155  00000-0  96839-3 0  9997","2 55096  97.4501  62.4707 0012925  41.3772 318.8445 15.29961871 54801","2023-001CR","55096","6854.063","94.120","484.787","467.069","0"
"GENERATED VIA SPACETRACK.ORG API","18 SPCS","55096","SPACEBEE-161","PAYLOAD","U","23001CR","2023-12-29 04:06:21","19968","15.29961871","0.0012925","97.4501","62.4707","41.3772","318.8445","0","999","5480","0.00096839","0.00028155","0","4148460","0 SPACEBEE-161","1 55096U 23001CR  23363.17107662  .00028155  00000-0  96839-3 0  9997","2 55096  97.4501  62.4707 0012925  41.3772 318.8445 15.29961871 54801","2023-001CR","55096","6854.063","94.120","484.787","467.069","0"
"GENERATED VIA SPACETRACK.ORG API","18 SPCS","55096","SPACEBEE-161","PAYLOAD","U","23001CR","2023-12-29 16:39:47","208960","15.29992494","0.0012891","97.45","62.9952","39.7421","320.4761","0","999","5488","0.00096102","0.00027965","0","4148761","0 SPACEBEE-161","1 55096U 23001CR  23363.69429640  .00027965  00000-0  96102-3 0  9998","2 55096  97.4500  62.9952 0012891  39.7421 320.4761 15.29992494 54884","2023-001CR","55096","6853.972","94.118","484.672","467.001","0"
"GENERATED VIA SPACETRACK.ORG API","18 SPCS","55096","SPACEBEE-161","PAYLOAD","U","23001CR","2023-12-30 03:39:01","896192","15.30018132","0.0012865","97.4495","63.4545","38.1193","322.0954","0","999","5495","0.00095923","0.00027935","0","4149332","0 SPACEBEE-161","1 55096U 23001CR  23364.15210528  .00027935  00000-0  95923-3 0  9990","2 55096  97.4495  63.4545 0012865  38.1193 322.0954 15.30018132 54951","2023-001CR","55096","6853.895","94.117","484.578","466.943","0"
"GENERATED VIA SPACETRACK.ORG API","18 SPCS","55096","SPACEBEE-161","PAYLOAD","U","23001CR","2023-12-30 17:46:36","950016","15.30050319","0.0012832","97.4496","64.0446","35.9191","324.291","0","999","5504","0.00091257","0.00026594","0","4149487","0 SPACEBEE-161","1 55096U 23001CR  23364.74070544  .00026594  00000-0  91257-3 0  9993","2 55096  97.4496  64.0446 0012832  35.9191 324.2910 15.30050319 55046","2023-001CR","55096","6853.799","94.115","484.459","466.869","0"
"GENERATED VIA SPACETRACK.ORG API","18 SPCS","55096","SPACEBEE-161","PAYLOAD","U","23001CR","2023-12-30 17:46:36","950016","15.30050319","0.0012832","97.4496","64.0446","35.9191","324.291","0","999","5504","0.00091257","0.00026594","0","4149598","0 SPACEBEE-161","1 55096U 23001CR  23364.74070544  .00026594  00000-0  91257-3 0  9993","2 55096  97.4496  64.0446 0012832  35.9191 324.2910 15.30050319 55046","2023-001CR","55096","6853.799","94.115","484.459","466.869","0"
"GENERATED VIA SPACETRACK.ORG API","18 SPCS","55096","SPACEBEE-161","PAYLOAD","U","23001CR","2023-12-31 17:19:13","165824","15.30098079","0.001271","97.4494","65.0279","32.8426","327.3602","0","999","5519","0.00085154","0.0002484","0","4150400","0 SPACEBEE-161","1 55096U 23001CR  23365.72168016  .00024840  00000-0  85154-3 0  9995","2 55096  97.4494  65.0279 0012710  32.8426 327.3602 15.30098079 55194","2023-001CR","55096","6853.656","94.112","484.232","466.810","0"
"GENERATED VIA SPACETRACK.ORG API","18 SPCS","55096","SPACEBEE-161","PAYLOAD","U","23001CR","2024-01-01 02:44:14","887680","15.30117616","0.0012721","97.4493","65.4216","31.4532","328.7467","0","999","5525","0.00083682","0.00024422","0","4150550","0 SPACEBEE-161","1 55096U 23001CR  24001.11406120  .00024422  00000-0  83682-3 0  9997","2 55096  97.4493  65.4216 0012721  31.4532 328.7467 15.30117616 55253","2023-001CR","55096","6853.598","94.110","484.182","466.745","0"
"GENERATED VIA SPACETRACK.ORG API","18 SPCS","55096","SPACEBEE-161","PAYLOAD","U","23001CR","2024-01-01 02:44:14","887680","15.30117616","0.0012721","97.4493","65.4216","31.4532","328.7467","0","999","5525","0.00083682","0.00024422","0","4150923","0 SPACEBEE-161","1 55096U 23001CR  24001.11406120  .00024422  00000-0  83682-3 0  9997","2 55096  97.4493  65.4216 0012721  31.4532 328.7467 15.30117616 55253","2023-001CR","55096","6853.598","94.110","484.182","466.745","0"
"GENERATED VIA SPACETRACK.ORG API","18 SPCS","55096","SPACEBEE-161","PAYLOAD","U","23001CR","2024-01-01 16:51:46","697184","15.30147445","0.0012607","97.4493","66.0114","29.7667","330.4288","0","999","5534","0.00086048","0.00025139","0","4151465","0 SPACEBEE-161","1 55096U 23001CR  24001.70262381  .00025139  00000-0  86048-3 0  9996","2 55096  97.4493  66.0114 0012607  29.7667 330.4288 15.30147445 55343","2023-001CR","55096","6853.509","94.109","484.014","466.734","0"
"GENERATED VIA SPACETRACK.ORG API","18 SPCS","55096","SPACEBEE-161","PAYLOAD","U","23001CR","2024-01-02 03:50:57","349536","15.30174276","0.0012645","97.4492","66.4702","27.8211","332.3703","0","999","5541","0.00097328","0.00028482","0","4151365","0 SPACEBEE-161","1 55096U 23001CR  24002.16038599  .00028482  00000-0  97328-3 0  9996","2 55096  97.4492  66.4702 0012645  27.8211 332.3703 15.30174276 55418","2023-001CR","55096","6853.429","94.107","483.960","466.628","0"
"GENERATED VIA SPACETRACK.ORG API","18 SPCS","55096","SPACEBEE-161","PAYLOAD","U","23001CR","2024-01-02 03:50:57","349536","15.30174276","0.0012645","97.4492","66.4702","27.8211","332.3703","0","999","5541","0.00097328","0.00028482","0","4151729","0 SPACEBEE-161","1 55096U 23001CR  24002.16038599  .00028482  00000-0  97328-3 0  9996","2 55096  97.4492  66.4702 0012645  27.8211 332.3703 15.30174276 55418","2023-001CR","55096","6853.429","94.107","483.960","466.628","0"
"GENERATED VIA SPACETRACK.ORG API","18 SPCS","55096","SPACEBEE-161","PAYLOAD","U","23001CR","2024-01-02 17:58:27","206400","15.30206329","0.0012474","97.4492","67.0599","26.0418","334.1447","0","999","5550","0.00092084","0.00026962","0","4151993","0 SPACEBEE-161","1 55096U 23001CR  24002.74892600  .00026962  00000-0  92084-3 0  9996","2 55096  97.4492  67.0599 0012474  26.0418 334.1447 15.30206329 55509","2023-001CR","55096","6853.333","94.105","483.747","466.649","0"
